CTC1_L_00655007-03
1 20056U 23328MV  26037.47810185  .00000000  00000+0  00000-0 0  9992
2 20056  60.0000 180.0000 0000000   0.0000 144.0000  3.34706426    15
CTC1_L_00655007-04
1 20057U 23866FI  26037.47810185  .00000000  00000+0  00000-0 0  9990
2 20057  60.0000 180.0000 0000000   0.0000 180.0000  3.34706426    16
CTC1_L_00655007-05
1 20058U 26795KD  26037.47810185  .00000000  00000+0  00000-0 0  9995
2 20058  60.0000 180.0000 0000000   0.0000 216.0000  3.34706426    17
CTC1_L_00655007-06
1 20059U 24645WB  26037.47810185  .00000000  00000+0  00000-0 0  9998
2 20059  60.0000 180.0000 0000000   0.0000 252.0000  3.34706426    18
CTC1_L_00655007-07
1 20060U 22100OY  26037.47810185  .00000000  00000+0  00000-0 0  9994
2 20060  60.0000 180.0000 0000000   0.0000 288.0000  3.34706426    19
CTC1_L_00655007-08
1 20061U 22120YE  26037.47810185  .00000000  00000+0  00000-0 0  9997
2 20061  60.0000 180.0000 0000000   0.0000 324.0000  3.34706426    11
CTC1_L_00655007-09
1 20062U 22712OL  26037.47810185  .00000000  00000+0  00000-0 0  9995
2 20062  60.0000 180.0000 0000000   0.0000   0.0000  3.34706426    13
CTC1_L_00655007-10
1 20063U 26481HL  26037.47810185  .00000000  00000+0  00000-0 0  9993
2 20063  60.0000 180.0000 0000000   0.0000  36.0000  3.34706426    13
CTC1_L_00655008-01
1 20064U 24927VY  26037.47810185  .00000000  00000+0  00000-0 0  9997
2 20064  60.0000 210.0000 0000000   0.0000  84.0000  3.34706426    11
CTC1_L_00655008-02
1 20065U 24732EM  26037.47810185  .00000000  00000+0  00000-0 0  9992
2 20065  60.0000 210.0000 0000000   0.0000 120.0000  3.34706426    13
CTC1_L_00655008-03
1 20066U 24269S   26037.47810185  .00000000  00000+0  00000-0 0  9998
2 20066  60.0000 210.0000 0000000   0.0000 156.0000  3.34706426    13
CTC1_L_00655008-04
1 20067U 25863TF  26037.47810185  .00000000  00000+0  00000-0 0  9990
2 20067  60.0000 210.0000 0000000   0.0000 192.0000  3.34706426    14
CTC1_L_00655008-05
1 20068U 22003AH  26037.47810185  .00000000  00000+0  00000-0 0  9994
2 20068  60.0000 210.0000 0000000   0.0000 228.0000  3.34706426    15
CTC1_L_00655008-06
1 20069U 26799YM  26037.47810185  .00000000  00000+0  00000-0 0  9991
2 20069  60.0000 210.0000 0000000   0.0000 264.0000  3.34706426    16
CTC1_L_00655008-07
1 20070U 24131B   26037.47810185  .00000000  00000+0  00000-0 0  9991
2 20070  60.0000 210.0000 0000000   0.0000 300.0000  3.34706426    19
CTC1_L_00655008-08
1 20071U 22805US  26037.47810185  .00000000  00000+0  00000-0 0  9998
2 20071  60.0000 210.0000 0000000   0.0000 336.0000  3.34706426    19
CTC1_L_00655008-09
1 20072U 25836WS  26037.47810185  .00000000  00000+0  00000-0 0  9996
2 20072  60.0000 210.0000 0000000   0.0000  12.0000  3.34706426    11
CTC1_L_00655008-10
1 20073U 24528NO  26037.47810185  .00000000  00000+0  00000-0 0  9994
2 20073  60.0000 210.0000 0000000   0.0000  48.0000  3.34706426    11
CTC1_L_00655009-01
1 20074U 23653MS  26037.47810185  .00000000  00000+0  00000-0 0  9993
2 20074  60.0000 240.0000 0000000   0.0000  96.0000  3.34706426    18
CTC1_L_00655009-02
1 20075U 25618AS  26037.47810185  .00000000  00000+0  00000-0 0  9997
2 20075  60.0000 240.0000 0000000   0.0000 132.0000  3.34706426    10
CTC1_L_00655009-03
1 20076U 23345I   26037.47810185  .00000000  00000+0  00000-0 0  9993
2 20076  60.0000 240.0000 0000000   0.0000 168.0000  3.34706426    10
CTC1_L_00655009-04
1 20077U 25117NG  26037.47810185  .00000000  00000+0  00000-0 0  9993
2 20077  60.0000 240.0000 0000000   0.0000 204.0000  3.34706426    12
CTC1_L_00655009-05
1 20078U 22341UE  26037.47810185  .00000000  00000+0  00000-0 0  9990
2 20078  60.0000 240.0000 0000000   0.0000 240.0000  3.34706426    13
CTC1_L_00655009-06
1 20079U 22461LU  26037.47810185  .00000000  00000+0  00000-0 0  9994
2 20079  60.0000 240.0000 0000000   0.0000 276.0000  3.34706426    13
CTC1_L_00655009-07
1 20080U 22912JL  26037.47810185  .00000000  00000+0  00000-0 0  9997
2 20080  60.0000 240.0000 0000000   0.0000 312.0000  3.34706426    16
CTC1_L_00655009-08
1 20081U 22873GV  26037.47810185  .00000000  00000+0  00000-0 0  9994
2 20081  60.0000 240.0000 0000000   0.0000 348.0000  3.34706426    16
CTC1_L_00655009-09
1 20082U 26301GK  26037.47810185  .00000000  00000+0  00000-0 0  9995
2 20082  60.0000 240.0000 0000000   0.0000  24.0000  3.34706426    18
CTC1_L_00655009-10
1 20083U 23679ZE  26037.47810185  .00000000  00000+0  00000-0 0  9991
2 20083  60.0000 240.0000 0000000   0.0000  60.0000  3.34706426    19
CTC1_L_00655010-01
1 20084U 22491QD  26037.47810185  .00000000  00000+0  00000-0 0  9993
2 20084  60.0000 270.0000 0000000   0.0000 108.0000  3.34706426    16
CTC1_L_00655010-02
1 20085U 26007UV  26037.47810185  .00000000  00000+0  00000-0 0  9991
2 20085  60.0000 270.0000 0000000   0.0000 144.0000  3.34706426    17
CTC1_L_00655010-03
1 20086U 23901KS  26037.47810185  .00000000  00000+0  00000-0 0  9992
2 20086  60.0000 270.0000 0000000   0.0000 180.0000  3.34706426    18
CTC1_L_00655010-04
1 20087U 22185VW  26037.47810185  .00000000  00000+0  00000-0 0  9996
2 20087  60.0000 270.0000 0000000   0.0000 216.0000  3.34706426    19
CTC1_L_00655010-05
1 20088U 25528QF  26037.47810185  .00000000  00000+0  00000-0 0  9991
2 20088  60.0000 270.0000 0000000   0.0000 252.0000  3.34706426    10
CTC1_L_00655010-06
1 20089U 26314Z   26037.47810185  .00000000  00000+0  00000-0 0  9996
2 20089  60.0000 270.0000 0000000   0.0000 288.0000  3.34706426    10
CTC1_L_00655010-07
1 20090U 26865WI  26037.47810185  .00000000  00000+0  00000-0 0  9999
2 20090  60.0000 270.0000 0000000   0.0000 324.0000  3.34706426    13
CTC1_L_00655010-08
1 20091U 23146OJ  26037.47810185  .00000000  00000+0  00000-0 0  9999
2 20091  60.0000 270.0000 0000000   0.0000   0.0000  3.34706426    15
CTC1_L_00655010-09
1 20092U 24443IG  26037.47810185  .00000000  00000+0  00000-0 0  9991
2 20092  60.0000 270.0000 0000000   0.0000  36.0000  3.34706426    15
CTC1_L_00655010-10
1 20093U 22307NU  26037.47810185  .00000000  00000+0  00000-0 0  9999
2 20093  60.0000 270.0000 0000000   0.0000  72.0000  3.34706426    16
CTC1_L_00655011-01
1 20094U 22465YN  26037.47810185  .00000000  00000+0  00000-0 0  9995
2 20094  60.0000 300.0000 0000000   0.0000 120.0000  3.34706426    15
CTC1_L_00655011-02
1 20095U 22699EB  26037.47810185  .00000000  00000+0  00000-0 0  9995
2 20095  60.0000 300.0000 0000000   0.0000 156.0000  3.34706426    15
CTC1_L_00655011-03
1 20096U 26470HV  26037.47810185  .00000000  00000+0  00000-0 0  9997
2 20096  60.0000 300.0000 0000000   0.0000 192.0000  3.34706426    16
CTC1_L_00655011-04
1 20097U 25817UW  26037.47810185  .00000000  00000+0  00000-0 0  9992
2 20097  60.0000 300.0000 0000000   0.0000 228.0000  3.34706426    17
CTC1_L_00655011-05
1 20098U 22335PT  26037.47810185  .00000000  00000+0  00000-0 0  9995
2 20098  60.0000 300.0000 0000000   0.0000 264.0000  3.34706426    18
CTC1_L_00655011-06
1 20099U 22741CU  26037.47810185  .00000000  00000+0  00000-0 0  9997
2 20099  60.0000 300.0000 0000000   0.0000 300.0000  3.34706426    10
CTC1_L_00655011-07
1 20100U 24257QJ  26037.47810185  .00000000  00000+0  00000-0 0  9994
2 20100  60.0000 300.0000 0000000   0.0000 336.0000  3.34706426    12
CTC1_L_00655011-08
1 20101U 22781NL  26037.47810185  .00000000  00000+0  00000-0 0  9995
2 20101  60.0000 300.0000 0000000   0.0000  12.0000  3.34706426    14
CTC1_L_00655011-09
1 20102U 22486QL  26037.47810185  .00000000  00000+0  00000-0 0  9998
2 20102  60.0000 300.0000 0000000   0.0000  48.0000  3.34706426    14
CTC1_L_00655011-10
1 20103U 24413DM  26037.47810185  .00000000  00000+0  00000-0 0  9991
2 20103  60.0000 300.0000 0000000   0.0000  84.0000  3.34706426    15
CTC1_L_00655012-01
1 20104U 26143VX  26037.47810185  .00000000  00000+0  00000-0 0  9994
2 20104  60.0000 330.0000 0000000   0.0000 132.0000  3.34706426    13
CTC1_L_00655012-02
1 20105U 22278PF  26037.47810185  .00000000  00000+0  00000-0 0  9990
2 20105  60.0000 330.0000 0000000   0.0000 168.0000  3.34706426    13
CTC1_L_00655012-03
1 20106U 23984DT  26037.47810185  .00000000  00000+0  00000-0 0  9996
2 20106  60.0000 330.0000 0000000   0.0000 204.0000  3.34706426    15
CTC1_L_00655012-04
1 20107U 26374DL  26037.47810185  .00000000  00000+0  00000-0 0  9993
2 20107  60.0000 330.0000 0000000   0.0000 240.0000  3.34706426    16
CTC1_L_00655012-05
1 20108U 26938UY  26037.47810185  .00000000  00000+0  00000-0 0  9990
2 20108  60.0000 330.0000 0000000   0.0000 276.0000  3.34706426    16
CTC1_L_00655012-06
1 20109U 25303KM  26037.47810185  .00000000  00000+0  00000-0 0  9996
2 20109  60.0000 330.0000 0000000   0.0000 312.0000  3.34706426    18
CTC1_L_00655012-07
1 20110U 26901QO  26037.47810185  .00000000  00000+0  00000-0 0  9993
2 20110  60.0000 330.0000 0000000   0.0000 348.0000  3.34706426    19
CTC1_L_00655012-08
1 20111U 23414CS  26037.47810185  .00000000  00000+0  00000-0 0  9990
2 20111  60.0000 330.0000 0000000   0.0000  24.0000  3.34706426    11
CTC1_L_00655012-09
1 20112U 22968EZ  26037.47810185  .00000000  00000+0  00000-0 0  9994
2 20112  60.0000 330.0000 0000000   0.0000  60.0000  3.34706426    12
CTC1_L_00655012-10
1 20113U 25515DC  26037.47810185  .00000000  00000+0  00000-0 0  9996
2 20113  60.0000 330.0000 0000000   0.0000  96.0000  3.34706426    12
